[{"OBJECT_NAME":"SHIYAN-6 03 (SY-6 03)","OBJECT_ID":"2021-028A","EPOCH":"2026-03-09T22:49:05.080800","MEAN_MOTION":13.77596335,"ECCENTRICITY":0.0046038,"INCLINATION":99.5345,"RA_OF_ASC_NODE":82.5401,"ARG_OF_PERICENTER":347.8227,"MEAN_ANOMALY":12.1807,"EPHEMERIS_TYPE":0,"CLASSIFICATION_TYPE":"U","NORAD_CAT_ID":48157,"ELEMENT_SET_NO":999,"REV_AT_EPOCH":24584,"BSTAR":1.7068221e-5,"MEAN_MOTION_DOT":-2.9e-7,"MEAN_MOTION_DDOT":0},{"OBJECT_NAME":"FENGYUN 1C DEB","OBJECT_ID":"1999-025DFK","EPOCH":"2026-03-09T01:51:48.245472","MEAN_MOTION":13.7726674,"ECCENTRICITY":0.0207636,"INCLINATION":98.5993,"RA_OF_ASC_NODE":114.901,"ARG_OF_PERICENTER":8.7971,"MEAN_ANOMALY":351.6733,"EPHEMERIS_TYPE":0,"CLASSIFICATION_TYPE":"U","NORAD_CAT_ID":33674,"ELEMENT_SET_NO":999,"REV_AT_EPOCH":89553,"BSTAR":0.001641513,"MEAN_MOTION_DOT":1.87e-5,"MEAN_MOTION_DDOT":0}]
